{
  "type": "FeatureCollection",
  "features": [
    {
      "type": "Feature",
      "properties": {
        "name": "River Saraswati"
      },
      "geometry": {
        "type": "LineString",
        "coordinates": [
          [78.0, 17.0],
          [78.1, 17.05],
          [78.2, 17.02],
          [78.3, 17.08],
          [78.4, 17.04],
          [78.5, 17.10],
          [78.6, 17.07],
          [78.7, 17.15],
          [78.8, 17.12],
          [78.9, 17.18],
          [79.0, 17.14],
          [79.1, 17.20],
          [79.2, 17.17]
        ]
      }
    }
  ]
}